227P/Catalina-LINEAR,e,6.5251,49.8822,90.1090,3.589956,0.1449007,0.50018029,51.7764,08/27.0/2011,2000,g 16.5,2.0
228P/LINEAR,e,7.9154,31.0662,114.7932,4.169230,0.1157765,0.17719272,0.3659,08/27.0/2011,2000,g 14.5,2.0
231P/LINEAR-NEAT,e,12.3257,133.0950,42.4556,4.025801,0.1220185,0.24665080,12.4943,08/27.0/2011,2000,g 14.5,2.0
232P/Hill,e,14.6383,56.1206,53.4121,4.485655,0.1037445,0.33527614,72.0415,08/27.0/2011,2000,g 11.5,4.0
234P/LINEAR,e,11.5158,179.7264,358.1732,3.816073,0.1322145,0.25061009,80.9436,08/27.0/2011,2000,g 12.0,4.0
235P/LINEAR,e,8.8919,204.4885,333.6451,4.001111,0.1231497,0.31340291,64.4840,08/27.0/2011,2000,g 12.0,4.0
237P/LINEAR,e,16.2430,251.9772,21.0752,3.739152,0.1363152,0.35562010,86.0241,08/27.0/2011,2000,g 14.5,2.0
238P/Read,e,1.2656,51.6421,325.2028,3.163511,0.1751661,0.25395143,29.7198,08/27.0/2011,2000,g 14.5,4.0
240P/NEAT,e,23.5216,74.9692,351.9694,3.862983,0.1298135,0.45014362,42.4005,08/27.0/2011,2000,g 12.0,4.0
242P/Spahr,e,32.5186,180.8537,247.5201,5.536657,0.0756541,0.28113503,343.3721,08/27.0/2011,2000,g  8.0,4.0
243P/NEAT,e,7.6373,87.6780,283.8249,3.834257,0.1312751,0.35956080,23.2517,08/27.0/2011,2000,g 12.5,4.0
244P/Scotti,e,2.2593,354.1926,92.4642,4.901914,0.0908146,0.20064888,346.7749,08/27.0/2011,2000,g  9.0,4.0
246P/NEAT,e,15.9709,78.7915,176.3042,4.026045,0.1220074,0.28504060,296.4087,08/27.0/2011,2000,g 10.5,4.0
247P/LINEAR,e,13.6822,54.1225,47.3398,3.964835,0.1248436,0.62561029,29.3178,08/27.0/2011,2000,g 16.5,2.0
248P/Gibbs,e,6.3705,207.7836,209.9244,5.970058,0.0675672,0.64036598,13.4627,08/27.0/2011,2000,g 14.0,4.0
249P/LINEAR,e,8.4260,240.4709,64.2220,2.776713,0.2130137,0.81604079,28.3136,08/27.0/2011,2000,g 15.5,4.0
251P/LINEAR,e,23.4933,219.4847,31.0047,3.491593,0.1510666,0.50902572,36.3279,08/27.0/2011,2000,g 16.5,2.0
